NORAD_CAT_ID,OBJECT_NAME,OBJECT_TYPE,EPOCH,MEAN_MOTION,ECCENTRICITY,INCLINATION,RA_OF_ASC_NODE,ARG_OF_PERICENTER,MEAN_ANOMALY,BSTAR,MEAN_MOTION_DOT,MEAN_MOTION_DDOT,TLE_LINE0,TLE_LINE1,TLE_LINE2,SEMIMAJOR_AXIS,PERIOD,APOGEE,PERIGEE,DECAYED
49179.0,STARLINK-3043,PAYLOAD,2023-02-05 14:30:58,14.98330339,0.0002653,69.9983,218.7589,271.2902,88.7953,1.7156e-05,1.12e-06,0.0,0 STARLINK-3043,1 49179U 21082BB  23036.60484440  .00000112  00000-0  17156-4 0  9995,2 49179  69.9983 218.7589 0002653 271.2902  88.7953 14.98330339 77989,6950.192,96.107,573.901,570.213,0.0
49179.0,STARLINK-3043,PAYLOAD,2023-02-05 22:31:38,14.98329985,0.0002668,69.9986,217.9173,271.5741,88.5112,7.3113e-06,-6e-08,0.0,0 STARLINK-3043,1 49179U 21082BB  23036.93864462 -.00000006  00000-0  73113-5 0  9996,2 49179  69.9986 217.9173 0002668 271.5741  88.5112 14.98329985 78039,6950.193,96.107,573.912,570.204,0.0
49179.0,STARLINK-3043,PAYLOAD,2023-02-06 12:56:51,14.9833381,0.000269,69.9984,216.4022,271.5313,88.5538,1.4799e-05,8.4e-07,0.0,0 STARLINK-3043,1 49179U 21082BB  23037.53948186  .00000084  00000-0  14799-4 0  9998,2 49179  69.9984 216.4022 0002690 271.5313  88.5538 14.98333810 78128,6950.181,96.107,573.916,570.177,0.0
49179.0,STARLINK-3043,PAYLOAD,2023-02-06 20:57:32,14.98321523,0.0002957,69.9985,215.5607,283.5733,76.5097,-0.00011264,-1.436e-05,0.0,0 STARLINK-3043,1 49179U 21082BB  23037.87329382 -.00001436  00000-0 -11264-3 0  9993,2 49179  69.9985 215.5607 0002957 283.5733  76.5097 14.98321523 78173,6950.219,96.108,574.139,570.029,0.0
49179.0,STARLINK-3043,PAYLOAD,2023-02-07 14:35:02,14.98314772,0.0002787,69.9983,213.7092,269.8008,90.2832,-7.0044e-05,-9.28e-06,0.0,0 STARLINK-3043,1 49179U 21082BB  23038.60766306 -.00000928  00000-0 -70044-4 0  9993,2 49179  69.9983 213.7092 0002787 269.8008  90.2832 14.98314772 78282,6950.24,96.108,574.042,570.168,0.0
49179.0,STARLINK-3043,PAYLOAD,2023-02-07 20:59:34,14.98316593,0.0002846,69.9986,213.0357,270.1232,89.9601,-5.2823e-05,-7.23e-06,0.0,0 STARLINK-3043,1 49179U 21082BB  23038.87470436 -.00000723  00000-0 -52823-4 0  9996,2 49179  69.9986 213.0357 0002846 270.1232  89.9601 14.98316593 78329,6950.234,96.108,574.077,570.121,0.0
49179.0,STARLINK-3043,PAYLOAD,2023-02-08 05:00:14,14.98324997,0.0002867,69.9989,212.1937,270.5293,89.5538,4.757e-05,4.75e-06,0.0,0 STARLINK-3043,1 49179U 21082BB  23039.20849927  .00000475  00000-0  47570-4 0  9994,2 49179  69.9989 212.1937 0002867 270.5293  89.5538 14.98324997 78377,6950.208,96.107,574.066,570.081,0.0
49179.0,STARLINK-3043,PAYLOAD,2023-02-08 13:00:54,14.9833231,0.000292,69.9985,211.3521,270.3488,89.7337,0.00013965,1.574e-05,0.0,0 STARLINK-3043,1 49179U 21082BB  23039.54229444  .00001574  00000-0  13965-3 0  9998,2 49179  69.9985 211.3521 0002920 270.3488  89.7337 14.98332310 78420,6950.186,96.107,574.08,570.021,0.0
49179.0,STARLINK-3043,PAYLOAD,2023-02-08 21:01:35,14.98338032,0.0002936,70.0001,210.5104,270.4894,89.5928,0.00073746,8.719e-05,0.0,0 STARLINK-3043,1 49179U 21082BB  23039.87610031  .00008719  00000-0  73746-3 0  9991,2 49179  70.0001 210.5104 0002936 270.4894  89.5928 14.98338032 78475,6950.168,96.106,574.074,569.992,0.0
49179.0,STARLINK-3043,PAYLOAD,2023-02-09 05:02:15,14.98346028,0.0002999,70.0003,209.6688,270.5972,89.4843,0.00084239,9.977e-05,0.0,0 STARLINK-3043,1 49179U 21082BB  23040.20989722  .00009977  00000-0  84239-3 0  9992,2 49179  70.0003 209.6688 0002999 270.5972  89.4843 14.98346028 78525,6950.143,96.106,574.093,569.924,0.0
49179.0,STARLINK-3043,PAYLOAD,2023-02-09 11:26:46,14.98356157,0.0003027,70.0005,208.9953,270.5913,89.4899,0.00086449,0.00010244,0.0,0 STARLINK-3043,1 49179U 21082BB  23040.47693228  .00010244  00000-0  86449-3 0  9998,2 49179  70.0005 208.9953 0003027 270.5913  89.4899 14.98356157 78561,6950.112,96.105,574.081,569.873,0.0
49179.0,STARLINK-3043,PAYLOAD,2023-02-09 19:27:26,14.98365686,0.0003067,70.0007,208.1541,271.8289,88.2518,0.0010076,0.00011961,0.0,0 STARLINK-3043,1 49179U 21082BB  23040.81072537  .00011961  00000-0  10076-2 0  9999,2 49179  70.0007 208.1541 0003067 271.8289  88.2518 14.98365686 78610,6950.083,96.105,574.079,569.816,0.0
49179.0,STARLINK-3043,PAYLOAD,2023-02-09 22:39:42,14.98372495,0.0003069,70.0008,207.8174,271.7965,88.2842,0.0012043,0.00014322,0.0,0 STARLINK-3043,1 49179U 21082BB  23040.94424135  .00014322  00000-0  12043-2 0  9998,2 49179  70.0008 207.8174 0003069 271.7965  88.2842 14.98372495 78639,6950.061,96.104,574.059,569.794,0.0
49179.0,STARLINK-3043,PAYLOAD,2023-02-10 13:04:54,14.98343239,0.0003209,70.0009,206.3025,265.4387,94.6406,-0.00011293,-1.441e-05,0.0,0 STARLINK-3043,1 49179U 21082BB  23041.54507998 -.00001441  00000-0 -11293-3 0  9991,2 49179  70.0009 206.3025 0003209 265.4387  94.6406 14.98343239 78724,6950.152,96.106,574.247,569.787,0.0
49179.0,STARLINK-3043,PAYLOAD,2023-02-10 19:29:27,14.98346234,0.0003153,70.0005,205.6293,268.0112,92.0686,0.00014388,1.625e-05,0.0,0 STARLINK-3043,1 49179U 21082BB  23041.81211874  .00001625  00000-0  14388-3 0  9996,2 49179  70.0005 205.6293 0003153 268.0112  92.0686 14.98346234 78766,6950.143,96.106,574.199,569.816,0.0
49179.0,STARLINK-3043,PAYLOAD,2023-02-11 03:30:07,14.98340336,0.0003089,70.0008,204.7876,268.49,91.5906,9.8051e-05,1.077e-05,0.0,0 STARLINK-3043,1 49179U 21082BB  23042.14591895  .00001077  00000-0  98051-4 0  9998,2 49179  70.0008 204.7876 0003089 268.4900  91.5906 14.98340336 78815,6950.161,96.106,574.173,569.879,0.0
49179.0,STARLINK-3043,PAYLOAD,2023-02-11 17:55:20,14.98334374,0.0003065,70.001,203.2733,267.7798,92.301,0.00021594,2.485e-05,0.0,0 STARLINK-3043,1 49179U 21082BB  23042.74675983  .00002485  00000-0  21594-3 0  9996,2 49179  70.0010 203.2733 0003065 267.7798  92.3010 14.98334374 78905,6950.179,96.107,574.175,569.914,0.0
49179.0,STARLINK-3043,PAYLOAD,2023-02-12 09:56:40,14.98332438,0.0002914,70.0013,201.59,269.6591,90.4234,0.00012054,1.346e-05,0.0,0 STARLINK-3043,1 49179U 21082BB  23043.41436065  .00001346  00000-0  12054-3 0  9993,2 49179  70.0013 201.5900 0002914 269.6591  90.4234 14.98332438 79007,6950.185,96.107,574.076,570.025,0.0
49179.0,STARLINK-3043,PAYLOAD,2023-02-12 16:21:12,14.98333943,0.0002925,70.0011,200.9171,269.4823,90.6,0.00021972,2.53e-05,0.0,0 STARLINK-3043,1 49179U 21082BB  23043.68139994  .00002530  00000-0  21972-3 0  9998,2 49179  70.0011 200.9171 0002925 269.4823  90.6000 14.98333943 79045,6950.181,96.107,574.079,570.013,0.0
49179.0,STARLINK-3043,PAYLOAD,2023-02-13 19:35:29,14.98336196,0.0003008,70.0008,198.0556,265.4264,94.6551,0.00019538,2.239e-05,0.0,0 STARLINK-3043,1 49179U 21082BB  23044.81631789  .00002239  00000-0  19538-3 0  9994,2 49179  70.0008 198.0556 0003008 265.4264  94.6551 14.98336196 79210,6950.174,96.107,574.129,569.948,0.0
49179.0,STARLINK-3043,PAYLOAD,2023-02-14 10:00:42,14.98328132,0.0003125,70.0009,196.5409,267.819,92.2611,5.931e-05,6.15e-06,0.0,0 STARLINK-3043,1 49179U 21082BB  23045.41716215  .00000615  00000-0  59310-4 0  9998,2 49179  70.0009 196.5409 0003125 267.8190  92.2611 14.98328132 79307,6950.199,96.107,574.236,569.892,0.0
49179.0,STARLINK-3043,PAYLOAD,2023-02-14 16:25:14,14.98333482,0.0003239,70.0005,195.867,268.1314,91.9474,6.374e-05,6.68e-06,0.0,0 STARLINK-3043,1 49179U 21082BB  23045.68419861  .00000668  00000-0  63740-4 0  9994,2 49179  70.0005 195.8670 0003239 268.1314  91.9474 14.98333482 79344,6950.182,96.107,574.298,569.796,0.0
49179.0,STARLINK-3043,PAYLOAD,2023-02-15 13:14:59,14.98335559,0.000321,70.0005,193.6776,264.9325,95.1468,0.00018556,2.122e-05,0.0,0 STARLINK-3043,1 49179U 21082BB  23046.55207714  .00002122  00000-0  18556-3 0  9994,2 49179  70.0005 193.6776 0003210 264.9325  95.1468 14.98335559 79472,6950.176,96.107,574.272,569.81,0.0
49179.0,STARLINK-3043,PAYLOAD,2023-02-15 16:27:15,14.98339671,0.0003408,69.9996,193.3434,268.0622,92.0146,0.00028263,3.282e-05,0.0,0 STARLINK-3043,1 49179U 21082BB  23046.68559484  .00003282  00000-0  28263-3 0  9996,2 49179  69.9996 193.3434 0003408 268.0622  92.0146 14.98339671 79490,6950.163,96.106,574.397,569.659,0.0
49179.0,STARLINK-3043,PAYLOAD,2023-02-16 13:17:00,14.98332102,0.0003147,70.0,191.1536,269.4229,90.6569,0.00012294,1.374e-05,0.0,0 STARLINK-3043,1 49179U 21082BB  23047.55347710  .00001374  00000-0  12294-3 0  9997,2 49179  70.0000 191.1536 0003147 269.4229  90.6569 14.98332102 79626,6950.186,96.107,574.239,569.864,0.0
49179.0,STARLINK-3043,PAYLOAD,2023-02-16 16:29:16,14.98340188,0.0003245,69.9989,190.8174,268.7376,91.3411,0.00015986,1.815e-05,0.0,0 STARLINK-3043,1 49179U 21082BB  23047.68699232  .00001815  00000-0  15986-3 0  9991,2 49179  69.9989 190.8174 0003245 268.7376  91.3411 14.98340188 79646,6950.161,96.106,574.282,569.771,0.0
49179.0,STARLINK-3043,PAYLOAD,2023-02-16 19:41:32,14.98341141,0.0003286,69.9991,190.4799,271.1552,88.9231,0.00019953,2.289e-05,0.0,0 STARLINK-3043,1 49179U 21082BB  23047.82051193  .00002289  00000-0  19953-3 0  9999,2 49179  69.9991 190.4799 0003286 271.1552  88.9231 14.98341141 79661,6950.158,96.106,574.307,569.74,0.0
49179.0,STARLINK-3043,PAYLOAD,2023-02-17 02:06:05,14.98327938,0.0003201,69.9991,189.8067,273.5481,86.5312,0.00066065,7.798e-05,0.0,0 STARLINK-3043,1 49179U 21082BB  23048.08756018  .00007798  00000-0  66065-3 0  9992,2 49179  69.9991 189.8067 0003201 273.5481  86.5312 14.98327938 79702,6950.199,96.107,574.289,569.84,0.0
49179.0,STARLINK-3043,PAYLOAD,2023-02-17 11:42:53,14.98331234,0.0003241,69.9997,188.7969,272.6485,87.4303,-1.5842e-05,-2.82e-06,0.0,0 STARLINK-3043,1 49179U 21082BB  23048.48811487 -.00000282  00000-0 -15842-4 0  9999,2 49179  69.9997 188.7969 0003241 272.6485  87.4303 14.98331234 79765,6950.189,96.107,574.307,569.802,0.0
49179.0,STARLINK-3043,PAYLOAD,2023-02-17 19:43:33,14.98337294,0.0003322,69.9988,187.9555,272.735,87.3429,6.2026e-05,6.47e-06,0.0,0 STARLINK-3043,1 49179U 21082BB  23048.82191208  .00000647  00000-0  62026-4 0  9998,2 49179  69.9988 187.9555 0003322 272.7350  87.3429 14.98337294 79815,6950.17,96.107,574.344,569.726,0.0
